{"version": 0.6, "generator": "Overpass API 0.7.61.5 4133829e", "osm3s": {"timestamp_osm_base": "2024-03-20T09:19:00Z", "copyright": "The data included in this document is from www.openstreetmap.org. The data is made available under ODbL."}, "elements": [{"type": "node", "id": 352966512, "lat": 9.914529, "lon": 78.1128657}, {"type": "node", "id": 352966604, "lat": 9.9141393, "lon": 78.1129011}, {"type": "node", "id": 352966696, "lat": 9.9141202, "lon": 78.1131573}, {"type": "node", "id": 352966751, "lat": 9.9145317, "lon": 78.1131328}, {"type": "node", "id": 518961467, "lat": 9.9298787, "lon": 78.1386083, "tags": {"addr:city": "Madurai", "addr:postcode": "625020", "addr:street": "Tamukkam", "email": "info@gandhimmm.org", "name": "Gandhi Ninaivu Arungatchiyagam", "name:en": "Gandhi Memorial Museum", "name:ml": "\u0d17\u0d3e\u0d28\u0d4d\u0d27\u0d3f \u0d38\u0d4d\u0d2e\u0d3e\u0d30\u0d15 \u0d2e\u0d4d\u0d2f\u0d42\u0d38\u0d3f\u0d2f\u0d02", "name:ta": "\u0b95\u0bbe\u0ba8\u0bcd\u0ba4\u0bbf \u0ba8\u0bbf\u0ba9\u0bc8\u0bb5\u0bc1 \u0b85\u0bb0\u0bc1\u0b99\u0bcd\u0b95\u0bbe\u0b9f\u0bcd\u0b9a\u0bbf\u0baf\u0b95\u0bae\u0bcd", "opening_hours": "24/7", "phone": "+91-452-5544 930", "start_date": "1955", "tourism": "museum", "wikidata": "Q5520712", "wikimedia_commons": "Category:Gandhi Museum, Madurai", "wikipedia": "en:Gandhi Memorial Museum, Madurai"}}, {"type": "node", "id": 519011014, "lat": 9.9402231, "lon": 78.1401316, "tags": {"name": "Hotel Tamil Nadu", "tourism": "hotel"}}, {"type": "node", "id": 519011022, "lat": 9.9409586, "lon": 78.1394621, "tags": {"brand": "Courtyard", "brand:wikidata": "Q1053170", "brand:wikipedia": "en:Courtyard by Marriott", "name": "Courtyard by Marriott Madurai", "official_name": "Courtyard by Marriott", "tourism": "hotel"}}, {"type": "node", "id": 583207334, "lat": 9.9206081, "lon": 78.1123733, "tags": {"name": "Hotel Supreme", "tourism": "hotel"}}, {"type": "node", "id": 623818411, "lat": 9.9142638, "lon": 78.1233329}, {"type": "node", "id": 623818413, "lat": 9.9147117, "lon": 78.123066}, {"type": "node", "id": 623818414, "lat": 9.9147012, "lon": 78.1228217}, {"type": "node", "id": 623818415, "lat": 9.9152577, "lon": 78.1227624}, {"type": "node", "id": 623818416, "lat": 9.9154296, "lon": 78.1237702}, {"type": "node", "id": 623818418, "lat": 9.9154836, "lon": 78.124948}, {"type": "node", "id": 623818881, "lat": 9.9203662, "lon": 78.112323, "tags": {"check_date": "2023-01-17", "email": "info@hotelrathnaresidency.com", "name": "Hotel Rathna Residency", "phone": "+91 452 450 2444", "tourism": "hotel", "website": "https://hotelrathnaresidency.com/"}}, {"type": "node", "id": 623818953, "lat": 9.9191364, "lon": 78.1123652, "tags": {"addr:city": "Madurai", "addr:housenumber": "96", "addr:postcode": "625001", "addr:street": "West Perumal Maistry Street", "bar": "no", "ele": "4", "email": "reservations@hotellotusmadurai.com", "internet_access": "wlan", "internet_access:fee": "no", "internet_access:ssid": "LOTUS", "name": "Hotel Lotus", "operator": "Gopinathan Vijayaraman", "payment:american_express": "yes", "payment:cash": "yes", "payment:contactless": "yes", "payment:credit_cards": "yes", "payment:debit_cards": "yes", "payment:maestro": "yes", "payment:mastercard": "yes", "payment:visa": "yes", "phone": "+91 9566847012;+91 9384839916", "rooms": "52", "smoking": "outside", "source": "local knowledge;gps", "stars": "3", "tourism": "hotel", "website": "http://www.hotellotusmadurai.com/", "wheelchair": "yes"}}, {"type": "node", "id": 648672916, "lat": 9.9202065, "lon": 78.1125221, "tags": {"name": "Chentoor", "tourism": "hotel"}}, {"type": "node", "id": 649282269, "lat": 9.9291839, "lon": 78.0950249}, {"type": "node", "id": 649282273, "lat": 9.930029, "lon": 78.0948724}, {"type": "node", "id": 649282275, "lat": 9.9299114, "lon": 78.0953092}, {"type": "node", "id": 649282278, "lat": 9.9294299, "lon": 78.0946252}, {"type": "node", "id": 689820150, "lat": 9.930434, "lon": 78.1484328}, {"type": "node", "id": 689820151, "lat": 9.9304299, "lon": 78.1486773}, {"type": "node", "id": 689820152, "lat": 9.9307152, "lon": 78.148661}, {"type": "node", "id": 689820153, "lat": 9.9307029, "lon": 78.1484247}, {"type": "node", "id": 1166262811, "lat": 9.9188936, "lon": 78.1126962, "tags": {"name": "T. M. Lodge", "tourism": "hotel"}}, {"type": "node", "id": 1166263079, "lat": 9.9179007, "lon": 78.1126784, "tags": {"name": "ASR Lodge", "tourism": "hotel"}}, {"type": "node", "id": 1166407901, "lat": 9.9184066, "lon": 78.1131135, "tags": {"name": "Santosh Lodge", "tourism": "hotel"}}, {"type": "node", "id": 1166407910, "lat": 9.9182073, "lon": 78.1122259, "tags": {"name": "Neww College House", "name:en": "New College House", "tourism": "hotel"}}, {"type": "node", "id": 1185210168, "lat": 9.9177207, "lon": 78.1143833, "tags": {"name": "Modern Cafe Lodge", "tourism": "guest_house"}}, {"type": "node", "id": 1668875639, "lat": 9.9306, "lon": 78.131, "tags": {"name": "Hotel North Gate", "tourism": "hotel"}}, {"type": "node", "id": 1669904223, "lat": 9.9209667, "lon": 78.1119089, "tags": {"amenity": "restaurant", "check_date": "2023-01-17", "cuisine": "indian", "email": "info@royalcourtindia.com", "internet_access": "wlan", "name": "Hotel Royal Court", "phone": "+91 452 435 6666; +91 93452 09811; +91 93613 45666", "tourism": "hotel", "website": "https://www.royalcourtindia.com/m/"}}, {"type": "node", "id": 2119974060, "lat": 9.9350051, "lon": 78.087271, "tags": {"addr:city": "Madurai", "addr:country": "IN", "addr:housenumber": "11", "addr:postcode": "625016", "addr:region": "Tamil Nadu", "addr:street": "Melakkal Main Road", "name": "Heritage Madurai", "source": "Bing", "tourism": "hotel"}}, {"type": "node", "id": 2121828167, "lat": 9.9175238, "lon": 78.1136142}, {"type": "node", "id": 2121828171, "lat": 9.917577, "lon": 78.1137454}, {"type": "node", "id": 2121828172, "lat": 9.917664, "lon": 78.1135556}, {"type": "node", "id": 2121828173, "lat": 9.9177173, "lon": 78.1136867}, {"type": "node", "id": 2152139397, "lat": 9.9176657, "lon": 78.1141466, "tags": {"addr:city": "Madurai", "addr:country": "IN", "addr:housenumber": "8", "addr:postcode": "625001", "addr:region": "Perumal Tank South, Town Hall Road", "name": "Hotel Palace", "phone": "+91 452 2342335", "tourism": "hotel"}}, {"type": "node", "id": 2152139400, "lat": 9.9176321, "lon": 78.1140109, "tags": {"name": "Kumara Lodge", "tourism": "hotel"}}, {"type": "node", "id": 2152139500, "lat": 9.9197522, "lon": 78.1232992, "tags": {"name": "Temple Holy Car Shelter", "tourism": "attraction"}}, {"type": "node", "id": 2152139503, "lat": 9.9202673, "lon": 78.1232384, "tags": {"name": "Temple Holy Car Shelter", "tourism": "attraction"}}, {"type": "node", "id": 2287869527, "lat": 9.9198711, "lon": 78.1174278, "tags": {"addr:city": "Madurai", "addr:housenumber": "20", "addr:postcode": "625001", "addr:street": "West Avani Moola Street", "name": "Sree Devi", "phone": "0452-2347431", "tourism": "hotel"}}, {"type": "node", "id": 2849919424, "lat": 9.9173026, "lon": 78.1122271, "tags": {"name": "Hotel Madurai Residency", "tourism": "hotel"}}, {"type": "node", "id": 3433471513, "lat": 9.9143552, "lon": 78.123143}, {"type": "node", "id": 3954603803, "lat": 9.9357319, "lon": 78.1020894, "tags": {"addr:city": "Madurai", "addr:housenumber": "46", "addr:postcode": "625016", "addr:street": "D D Road, Near Bus Stand Arapalayam", "name": "Vedanta Wake up hostel", "tourism": "hotel"}}, {"type": "node", "id": 4017003122, "lat": 9.9179232, "lon": 78.1146342, "tags": {"name": "Boopathi", "tourism": "hotel"}}, {"type": "node", "id": 4273642790, "lat": 9.943315, "lon": 78.0998229, "tags": {"addr:street": "Bye Pass Road", "name": "Hotel Theekadhir", "tourism": "hotel"}}, {"type": "node", "id": 4273661191, "lat": 9.9426257, "lon": 78.0991001, "tags": {"addr:street": "Bye Pass Road", "name": "Hotel Heritage Residency", "tourism": "motel"}}, {"type": "node", "id": 4364239796, "lat": 9.9184158, "lon": 78.1144701, "tags": {"addr:housenumber": "9", "addr:postcode": "625-001", "addr:street": "Perumal Tank East Street", "name": "Ramson", "phone": "04524383406", "tourism": "hotel"}}, {"type": "node", "id": 4405908697, "lat": 9.9172769, "lon": 78.1127143, "tags": {"name": "Alavai Lodging", "tourism": "hotel"}}, {"type": "node", "id": 4405908704, "lat": 9.9144745, "lon": 78.111364, "tags": {"name": "Hotel Ashok Bhavan", "tourism": "hotel"}}, {"type": "node", "id": 4493273490, "lat": 9.9190247, "lon": 78.1129444, "tags": {"addr:housenumber": "46", "addr:street": "West Perumal Maistry Street", "email": "hotelinternational@gmail.com", "internet_access": "wlan", "name:en": "Hotel International", "phone": "00914524377463", "tourism": "hotel"}}, {"type": "node", "id": 4571968692, "lat": 9.9210149, "lon": 78.145711, "tags": {"addr:housenumber": "6/32", "addr:postcode": "625020", "addr:street": "Moulana Sahib Street", "name:en": "Vaishnavi Guhana", "opening_hours": "Mo-Fr 10:00-18:00", "phone": "04522535702", "tourism": "attraction"}}, {"type": "node", "id": 4603529889, "lat": 9.9067567, "lon": 78.1427735, "tags": {"addr:housenumber": "69", "addr:postcode": "625009", "addr:street": "Pagalavan street", "name:en": "Kappal veedu", "tourism": "guest_house"}}, {"type": "node", "id": 4605195664, "lat": 9.9082314, "lon": 78.1044974, "tags": {"addr:city": "MADURAI", "addr:housenumber": "2/2", "addr:postcode": "625003", "addr:street": "PERUMAL NANDAVANAM STREET", "check_date": "2024-01-21", "email": "hotelsreedevireservation@gmail.com", "internet_access": "yes", "internet_access:fee": "yes", "name": "Hotel Sree Devi", "phone": "+91 96981 91949; +91 73737 71949", "rooms": "39", "smoking": "outside", "source": "survey", "tourism": "hotel", "website": "https://www.hotelsreedevi.com/"}}, {"type": "node", "id": 4684982290, "lat": 9.9239678, "lon": 78.1392878, "tags": {"addr:street": "Satthamangalam, opp. Vale speciality ortho clinic", "name:en": "Star Residency Madurai", "phone": "04524343999", "tourism": "hotel"}}, {"type": "node", "id": 4689966238, "lat": 9.9143237, "lon": 78.1119938}, {"type": "node", "id": 4689966239, "lat": 9.9142183, "lon": 78.1119823}, {"type": "node", "id": 4701650836, "lat": 9.9459666, "lon": 78.1565049, "tags": {"name": "Subrabatham Residency", "tourism": "hotel"}}, {"type": "node", "id": 4701650837, "lat": 9.9470817, "lon": 78.1583671, "tags": {"diet:vegetarian": "yes", "name": "Saravana Bhavan", "tourism": "hotel"}}, {"type": "node", "id": 4731556823, "lat": 9.9177656, "lon": 78.1121943, "tags": {"addr:street": "West Market Street", "name:en": "Hotel KPS", "tourism": "hotel"}}, {"type": "node", "id": 4731902121, "lat": 9.9181842, "lon": 78.1128119, "tags": {"name:en": "Lodge Selection", "tourism": "guest_house"}}, {"type": "node", "id": 5195230525, "lat": 9.9629274, "lon": 78.1575422, "tags": {"name:en": "JSS house", "tourism": "guest_house"}}, {"type": "node", "id": 5251830721, "lat": 9.9159077, "lon": 78.0966193, "tags": {"addr:housenumber": "4", "addr:postcode": "625001;625016", "addr:street": "70 feet Road, Ellis Nagar;SBO Second Colony, SS Colony, Ellis Nagar 70 feet Road", "email": "tlh.madurai@gmail.com", "internet_access": "wlan", "internet_access:fee": "no", "name": "The Lost Hostels, Madurai", "name:en": "The Lost Hostels, Madurai", "opening_hours": "24/7", "operator": "The Lost Hostels", "phone": "9994521498", "rooms": "3", "smoking": "outside", "start_date": "Nov 2017", "tourism": "hostel", "website": "http://www.thelosthostels.com;www.thelosthostels.com"}}, {"type": "node", "id": 5711710023, "lat": 9.9197623, "lon": 78.1125253, "tags": {"name:en": "Prem Nivas", "tourism": "hotel"}}, {"type": "node", "id": 5893885323, "lat": 9.917772, "lon": 78.1171401, "tags": {"name": "YMCA international guest house", "tourism": "guest_house"}}, {"type": "node", "id": 5929157196, "lat": 9.8853215, "lon": 78.0794854}, {"type": "node", "id": 5929157197, "lat": 9.8853099, "lon": 78.0799268}, {"type": "node", "id": 5929157198, "lat": 9.8853545, "lon": 78.0799241}, {"type": "node", "id": 5929157199, "lat": 9.8852869, "lon": 78.0800675}, {"type": "node", "id": 5929157200, "lat": 9.8852598, "lon": 78.0802297}, {"type": "node", "id": 5929157201, "lat": 9.8851842, "lon": 78.0802325}, {"type": "node", "id": 5929157202, "lat": 9.8851903, "lon": 78.0799399}, {"type": "node", "id": 5929157203, "lat": 9.8852454, "lon": 78.0794832}, {"type": "node", "id": 6227394787, "lat": 9.9221251, "lon": 78.1170773, "tags": {"name:en": "Magniv", "tourism": "apartment"}}, {"type": "node", "id": 6287504785, "lat": 9.9175948, "lon": 78.1126695, "tags": {"name:en": "SURAPI LODGE", "tourism": "hostel"}}, {"type": "node", "id": 6606071186, "lat": 9.9205197, "lon": 78.1170586, "tags": {"name:en": "Sabarees Residency", "tourism": "hotel"}}, {"type": "node", "id": 6629072922, "lat": 9.9213188, "lon": 78.1124134, "tags": {"name": "Hotel Park Plaza", "tourism": "hotel"}}, {"type": "node", "id": 6629072924, "lat": 9.9202685, "lon": 78.111417, "tags": {"internet_access": "wlan", "name": "Cosmopolitan", "tourism": "hotel"}}, {"type": "node", "id": 6630912563, "lat": 9.9196582, "lon": 78.1180166, "tags": {"information": "board", "tourism": "information"}}, {"type": "node", "id": 6633362804, "lat": 9.9178589, "lon": 78.1121868, "tags": {"name": "Shree Kanna", "tourism": "hotel"}}, {"type": "node", "id": 6690578743, "lat": 9.9001858, "lon": 78.0835156, "tags": {"addr:city": "Madurai", "addr:country": "IN", "addr:housenumber": "40", "addr:postcode": "625004", "addr:street": "Tirupparankunram Road", "brand": "Taj", "brand:wikidata": "Q1521893", "email": "gateway.madurai@tajhotels.com", "internet_access": "wlan", "internet_access:fee": "no", "name": "The Gateway Hotel Pasumalai", "official_name": "Taj Hotels", "phone": "91 452 7133000", "stars": "5", "tourism": "hotel"}}, {"type": "node", "id": 6810052482, "lat": 9.9204671, "lon": 78.1178285, "tags": {"addr:city": "Madurai", "addr:housenumber": "18, 19", "addr:postcode": "625001", "addr:street": "North Chitrai St.,", "internet_access": "wlan", "name": "Hotel Senthil Residency", "tourism": "hotel", "website": "http://hotelsenthilresidency.com"}}, {"type": "node", "id": 6936438356, "lat": 9.9701556, "lon": 78.0415897}, {"type": "node", "id": 6936438357, "lat": 9.9695454, "lon": 78.0414301}, {"type": "node", "id": 6936438358, "lat": 9.9694833, "lon": 78.0417962}, {"type": "node", "id": 6936438359, "lat": 9.9693261, "lon": 78.0419344}, {"type": "node", "id": 6936438360, "lat": 9.9674848, "lon": 78.0418593}, {"type": "node", "id": 6936438361, "lat": 9.9669142, "lon": 78.0417788}, {"type": "node", "id": 6936438362, "lat": 9.9664255, "lon": 78.0416876}, {"type": "node", "id": 6936438363, "lat": 9.9664519, "lon": 78.0412289}, {"type": "node", "id": 6936438364, "lat": 9.9665814, "lon": 78.040368}, {"type": "node", "id": 6936438365, "lat": 9.966901, "lon": 78.039346}, {"type": "node", "id": 6936438366, "lat": 9.9671705, "lon": 78.0385011}, {"type": "node", "id": 6936438367, "lat": 9.9672497, "lon": 78.0380344}, {"type": "node", "id": 6936438368, "lat": 9.9674796, "lon": 78.037211}, {"type": "node", "id": 6936438369, "lat": 9.9680317, "lon": 78.0373934}, {"type": "node", "id": 6936438370, "lat": 9.9681717, "lon": 78.0388176}, {"type": "node", "id": 6936438371, "lat": 9.9692706, "lon": 78.0387855}, {"type": "node", "id": 6936438372, "lat": 9.9697382, "lon": 78.0388284}, {"type": "node", "id": 6936438373, "lat": 9.9697673, "lon": 78.0398074}, {"type": "node", "id": 6936438374, "lat": 9.9698188, "lon": 78.0407421}, {"type": "node", "id": 6936438375, "lat": 9.9702032, "lon": 78.0413175}, {"type": "node", "id": 6943969188, "lat": 9.9167274, "lon": 78.1125608, "tags": {"name": "Madurai Residency", "survey:date": "2019-11-03", "tourism": "hotel"}}, {"type": "node", "id": 6943969286, "lat": 9.9165604, "lon": 78.1128467, "tags": {"name": "RKN Rooms", "survey:date": "2019-11-03", "tourism": "hotel"}}, {"type": "node", "id": 7020233486, "lat": 9.9209534, "lon": 78.1487949, "tags": {"name:ko": "\uc544\ub77c\uc0b0 \uc0bd\ud0c0\uae30\ub9ac", "tourism": "hotel"}}, {"type": "node", "id": 7068120066, "lat": 9.9290846, "lon": 78.1291982, "tags": {"artwork_type": "statue", "name": "Thevar Statue", "tourism": "artwork"}}, {"type": "node", "id": 7068120088, "lat": 9.9309511, "lon": 78.1321384, "tags": {"artwork_type": "statue", "name": "Martyrs' Statue", "tourism": "artwork"}}, {"type": "node", "id": 7080040575, "lat": 9.8853521, "lon": 78.0800658}, {"type": "node", "id": 7100577085, "lat": 9.9128786, "lon": 78.1141991, "tags": {"name:en": "Madurai Maqbara", "tourism": "attraction"}}, {"type": "node", "id": 7100854585, "lat": 9.9303356, "lon": 78.138719, "tags": {"museum": "history", "name": "Arasu Arungatchiyagam - Madurai", "name:en": "Government Museum - Madurai", "name:ta": "\u0b85\u0bb0\u0b9a\u0bc1 \u0b85\u0bb0\u0bc1\u0b99\u0bcd\u0b95\u0bbe\u0b9f\u0bcd\u0b9a\u0bbf\u0baf\u0b95\u0bae\u0bcd - \u0bae\u0ba4\u0bc1\u0bb0\u0bc8", "tourism": "museum"}}, {"type": "node", "id": 7133834985, "lat": 9.9487294, "lon": 78.1607495, "tags": {"name": "La Vivanta", "tourism": "hotel"}}, {"type": "node", "id": 7243852586, "lat": 9.9238444, "lon": 78.1242635, "tags": {"artwork_type": "statue", "name": "Anna statue", "name:en": "Anna Statue", "source": "local knowledge", "survey:date": "2023-11-26", "tourism": "artwork"}}, {"type": "node", "id": 7335721123, "lat": 9.9112573, "lon": 78.1495908, "tags": {"artwork_type": "statue", "name": "\u0bae\u0bb0\u0bc1\u0ba4\u0bc1 \u0baa\u0bbe\u0ba3\u0bcd\u0b9f\u0bbf\u0baf\u0bb0\u0bcd \u0b9a\u0bbf\u0bb2\u0bc8", "name:en": "Statue of Marudu Pandiyar", "tourism": "artwork"}}, {"type": "node", "id": 7346323879, "lat": 9.9300231, "lon": 78.0950452}, {"type": "node", "id": 7346323880, "lat": 9.9299692, "lon": 78.0950272}, {"type": "node", "id": 7368813277, "lat": 9.9374784, "lon": 78.1325723, "tags": {"addr:city": "Chinna Chokikulam, Madurai", "addr:housenumber": "14", "addr:postcode": "625002", "addr:street": "Lady Doak College Road", "name": "JC Residency Hotel", "name:ta": "\u0b9c\u0bc7\u0b9a\u0bbf \u0bb0\u0bc6\u0b9a\u0bbf\u0b9f\u0bc6\u0ba9\u0bcd\u0b9a\u0bbf", "stars": "3", "tourism": "hotel"}}, {"type": "node", "id": 7488337185, "lat": 9.9143769, "lon": 78.1249825}, {"type": "node", "id": 7493056959, "lat": 9.9143242, "lon": 78.1125252}, {"type": "node", "id": 7493056960, "lat": 9.9142143, "lon": 78.11252}, {"type": "node", "id": 7553428007, "lat": 9.8836749, "lon": 78.0825821, "tags": {"artwork_type": "statue", "tourism": "artwork"}}, {"type": "node", "id": 7572270263, "lat": 9.885231, "lon": 78.0799419}, {"type": "node", "id": 7572270264, "lat": 9.8849065, "lon": 78.0794683}, {"type": "node", "id": 7572270265, "lat": 9.8848972, "lon": 78.0799198}, {"type": "node", "id": 7572270266, "lat": 9.8849489, "lon": 78.0799172}, {"type": "node", "id": 7572270267, "lat": 9.8849462, "lon": 78.0800416}, {"type": "node", "id": 7572270268, "lat": 9.8848499, "lon": 78.0799593}, {"type": "node", "id": 7572270269, "lat": 9.8848403, "lon": 78.0803178}, {"type": "node", "id": 7572270270, "lat": 9.8847706, "lon": 78.0803179}, {"type": "node", "id": 7572270271, "lat": 9.8847822, "lon": 78.0799187}, {"type": "node", "id": 7572270272, "lat": 9.8848273, "lon": 78.079917}, {"type": "node", "id": 7572270273, "lat": 9.8848421, "lon": 78.0794679}, {"type": "node", "id": 7572270274, "lat": 9.8845066, "lon": 78.0794395}, {"type": "node", "id": 7572270275, "lat": 9.8844884, "lon": 78.079879}, {"type": "node", "id": 7572270276, "lat": 9.8845386, "lon": 78.0798794}, {"type": "node", "id": 7572270277, "lat": 9.8845344, "lon": 78.0800169}, {"type": "node", "id": 7572270278, "lat": 9.8844451, "lon": 78.0799323}, {"type": "node", "id": 7572270279, "lat": 9.8844285, "lon": 78.0803818}, {"type": "node", "id": 7572270280, "lat": 9.884357, "lon": 78.0803802}, {"type": "node", "id": 7572270281, "lat": 9.8843772, "lon": 78.0798866}, {"type": "node", "id": 7572270282, "lat": 9.8844143, "lon": 78.0798869}, {"type": "node", "id": 7572270283, "lat": 9.8844302, "lon": 78.0794353}, {"type": "node", "id": 7572270284, "lat": 9.8840955, "lon": 78.0794145}, {"type": "node", "id": 7572301985, "lat": 9.8840771, "lon": 78.0798615}, {"type": "node", "id": 7572301986, "lat": 9.8841321, "lon": 78.0798611}, {"type": "node", "id": 7572301987, "lat": 9.8841283, "lon": 78.0800004}, {"type": "node", "id": 7572301988, "lat": 9.8840351, "lon": 78.0799044}, {"type": "node", "id": 7572301989, "lat": 9.8840193, "lon": 78.0804558}, {"type": "node", "id": 7572301990, "lat": 9.8839387, "lon": 78.0804553}, {"type": "node", "id": 7572301991, "lat": 9.8839621, "lon": 78.0798661}, {"type": "node", "id": 7572301992, "lat": 9.8839991, "lon": 78.0798656}, {"type": "node", "id": 7572301993, "lat": 9.8840188, "lon": 78.079414}, {"type": "node", "id": 7572301994, "lat": 9.8845357, "lon": 78.0786313}, {"type": "node", "id": 7572301995, "lat": 9.88453, "lon": 78.0790473}, {"type": "node", "id": 7572301996, "lat": 9.8844734, "lon": 78.0790465}, {"type": "node", "id": 7572301997, "lat": 9.8844698, "lon": 78.0793116}, {"type": "node", "id": 7572301998, "lat": 9.884368, "lon": 78.0793102}, {"type": "node", "id": 7572301999, "lat": 9.8843717, "lon": 78.0790298}, {"type": "node", "id": 7572302000, "lat": 9.8842817, "lon": 78.0790285}, {"type": "node", "id": 7572302001, "lat": 9.884455, "lon": 78.0787928}, {"type": "node", "id": 7572302002, "lat": 9.8844571, "lon": 78.0786302}, {"type": "node", "id": 7572302003, "lat": 9.8842849, "lon": 78.0787904}, {"type": "node", "id": 7572302004, "lat": 9.8841748, "lon": 78.0788733}, {"type": "node", "id": 7572302005, "lat": 9.8841723, "lon": 78.079031}, {"type": "node", "id": 7572302006, "lat": 9.8841156, "lon": 78.0790301}, {"type": "node", "id": 7572302007, "lat": 9.8841116, "lon": 78.0792947}, {"type": "node", "id": 7572302008, "lat": 9.8840072, "lon": 78.0792931}, {"type": "node", "id": 7572302009, "lat": 9.8840115, "lon": 78.0790123}, {"type": "node", "id": 7572302010, "lat": 9.8839669, "lon": 78.0790116}, {"type": "node", "id": 7572302011, "lat": 9.8839733, "lon": 78.0786023}, {"type": "node", "id": 7572302012, "lat": 9.8840634, "lon": 78.0786037}, {"type": "node", "id": 7572302013, "lat": 9.8840593, "lon": 78.0788714}, {"type": "node", "id": 7572302014, "lat": 9.8846925, "lon": 78.0790875}, {"type": "node", "id": 7572302015, "lat": 9.8846903, "lon": 78.0792852}, {"type": "node", "id": 7572302016, "lat": 9.884545, "lon": 78.0792835}, {"type": "node", "id": 7572302017, "lat": 9.8845472, "lon": 78.0790858}, {"type": "node", "id": 7572302018, "lat": 9.8838816, "lon": 78.080522}, {"type": "node", "id": 7572302019, "lat": 9.8836772, "lon": 78.0805199}, {"type": "node", "id": 7572302020, "lat": 9.8837319, "lon": 78.0793683}, {"type": "node", "id": 7572302021, "lat": 9.8839222, "lon": 78.0794077}, {"type": "node", "id": 7572302030, "lat": 9.8848642, "lon": 78.0805111}, {"type": "node", "id": 7572302031, "lat": 9.8848539, "lon": 78.0806553}, {"type": "node", "id": 7572302032, "lat": 9.8847406, "lon": 78.080647}, {"type": "node", "id": 7572302033, "lat": 9.8847508, "lon": 78.0805028}, {"type": "node", "id": 7572302163, "lat": 9.8787474, "lon": 78.0818551}, {"type": "node", "id": 7572302164, "lat": 9.8785662, "lon": 78.0818707}, {"type": "node", "id": 7572302165, "lat": 9.8786287, "lon": 78.0826183}, {"type": "node", "id": 7572302166, "lat": 9.8787916, "lon": 78.0826043}, {"type": "node", "id": 7572302167, "lat": 9.8787713, "lon": 78.0823615}, {"type": "node", "id": 7572302168, "lat": 9.8789015, "lon": 78.0823503}, {"type": "node", "id": 7572302169, "lat": 9.8789231, "lon": 78.0826078}, {"type": "node", "id": 7572302170, "lat": 9.8791202, "lon": 78.0825908}, {"type": "node", "id": 7572302171, "lat": 9.8790711, "lon": 78.0820041}, {"type": "node", "id": 7572302172, "lat": 9.878993, "lon": 78.0820109}, {"type": "node", "id": 7572302173, "lat": 9.8789969, "lon": 78.0820573}, {"type": "node", "id": 7572302174, "lat": 9.878766, "lon": 78.0820772}, {"type": "node", "id": 7572302175, "lat": 9.8782557, "lon": 78.0817021}, {"type": "node", "id": 7572302176, "lat": 9.8782949, "lon": 78.0823235}, {"type": "node", "id": 7572302177, "lat": 9.8781123, "lon": 78.0823443}, {"type": "node", "id": 7572302178, "lat": 9.8780725, "lon": 78.081714}, {"type": "node", "id": 7572302179, "lat": 9.8782482, "lon": 78.0823266}, {"type": "node", "id": 7572302180, "lat": 9.8782525, "lon": 78.0823963}, {"type": "node", "id": 7572302181, "lat": 9.87818, "lon": 78.082401}, {"type": "node", "id": 7572302182, "lat": 9.8781762, "lon": 78.0823401}, {"type": "node", "id": 7572302183, "lat": 9.878507, "lon": 78.0822906}, {"type": "node", "id": 7572302184, "lat": 9.8785196, "lon": 78.0824378}, {"type": "node", "id": 7572302185, "lat": 9.8784535, "lon": 78.0824437}, {"type": "node", "id": 7572302186, "lat": 9.8784407, "lon": 78.0822965}, {"type": "node", "id": 7647130253, "lat": 9.9320403, "lon": 78.0970253}, {"type": "node", "id": 7647130254, "lat": 9.9320984, "lon": 78.0967329}, {"type": "node", "id": 7647130255, "lat": 9.9316572, "lon": 78.0966444}, {"type": "node", "id": 7647130256, "lat": 9.9315898, "lon": 78.0969395}, {"type": "node", "id": 8036372340, "lat": 9.8919109, "lon": 78.1479653, "tags": {"guest_house": "hostel", "name": "Men's Hostel - Staff", "tourism": "hostel"}}, {"type": "node", "id": 8456917430, "lat": 9.9394487, "lon": 78.1374783, "tags": {"name": "Fortune Pandiyan", "tourism": "hotel", "website": "https://www.fortunehotels.in/madurai-fortune-pandiyan.dh.15"}}, {"type": "node", "id": 8986963224, "lat": 9.9389003, "lon": 78.136864, "tags": {"artwork_type": "statue", "name": "PTR Palanivel Rajan", "survey:date": "2021-07-27", "tourism": "artwork"}}, {"type": "node", "id": 9223762011, "lat": 9.9189341, "lon": 78.107855}, {"type": "node", "id": 9223762012, "lat": 9.9189595, "lon": 78.1076275}, {"type": "node", "id": 9223762013, "lat": 9.919001, "lon": 78.1079152}, {"type": "node", "id": 9223762014, "lat": 9.9188386, "lon": 78.1077733}, {"type": "node", "id": 9223762015, "lat": 9.9189407, "lon": 78.1079241}, {"type": "node", "id": 9223762016, "lat": 9.9189033, "lon": 78.1078921}, {"type": "node", "id": 9223781017, "lat": 9.91897, "lon": 78.1078887}, {"type": "node", "id": 9223781018, "lat": 9.9191233, "lon": 78.1077676}, {"type": "node", "id": 9276965149, "lat": 9.9427729, "lon": 78.1671506, "tags": {"addr:country": "IN", "description": "Service Apartments", "name": "Hi Way Residency", "tourism": "apartment"}}, {"type": "node", "id": 9468662185, "lat": 9.9295586, "lon": 78.1380267}, {"type": "node", "id": 9468662186, "lat": 9.9296174, "lon": 78.1380821}, {"type": "node", "id": 9468662187, "lat": 9.929616, "lon": 78.1381725}, {"type": "node", "id": 9468662188, "lat": 9.9295355, "lon": 78.1381955}, {"type": "node", "id": 9468662189, "lat": 9.9294717, "lon": 78.1381413}, {"type": "node", "id": 9468662190, "lat": 9.9294804, "lon": 78.1380533}, {"type": "node", "id": 9569071845, "lat": 9.9492265, "lon": 78.1638058, "tags": {"name": "Golden Residency", "tourism": "hotel"}}, {"type": "node", "id": 9661249288, "lat": 9.9252683, "lon": 78.119073, "tags": {"artwork_type": "statue", "material": "metal", "name": "Kalaignar Karunanidhi Selai", "tourism": "artwork"}}, {"type": "node", "id": 9760917219, "lat": 9.9365991, "lon": 78.1444921, "tags": {"artwork_type": "statue", "name": "MGR & Jayalalitha Statue", "survey:date": "2022-05-15", "tourism": "artwork"}}, {"type": "node", "id": 9787264017, "lat": 9.9218666, "lon": 78.0967397, "tags": {"name": "Lakshmi Saagar", "survey:date": "2022-06-01", "tourism": "apartment", "wheelchair": "yes"}}, {"type": "node", "id": 9789219174, "lat": 9.9370083, "lon": 78.1415243, "tags": {"artwork_type": "statue", "name": "Kakkan Silai", "name:en": "Kakkan Statue", "name:ta": "\u0b95\u0b95\u0bcd\u0b95\u0ba9\u0bcd \u0b9a\u0bbf\u0bb2\u0bc8", "tourism": "artwork"}}, {"type": "node", "id": 9794168917, "lat": 9.9209845, "lon": 78.0969973, "tags": {"name": "Aparna Paradise", "survey:date": "2022-06-02", "tourism": "apartment"}}, {"type": "node", "id": 9794168918, "lat": 9.9208732, "lon": 78.0980862, "tags": {"name": "Aparna Ganesh", "survey:date": "2022-06-02", "tourism": "apartment"}}, {"type": "node", "id": 9794168919, "lat": 9.9231785, "lon": 78.0965831, "tags": {"name": "Bharath Towers", "survey:date": "2022-06-03", "tourism": "apartment"}}, {"type": "node", "id": 9794169017, "lat": 9.9209341, "lon": 78.0972603, "tags": {"name": "Aparna Paradise", "survey:date": "2022-06-02", "tourism": "apartment"}}, {"type": "node", "id": 9794169018, "lat": 9.9232558, "lon": 78.0962769, "tags": {"name": "Bharath Heights", "survey:date": "2022-06-03", "tourism": "apartment"}}, {"type": "node", "id": 9859758919, "lat": 9.9206397, "lon": 78.1185659, "tags": {"name": "Madurai. Bazaar", "survey:date": "2022-07-01", "tourism": "gallery"}}, {"type": "node", "id": 9859759017, "lat": 9.9412542, "lon": 78.1478401, "tags": {"name": "St Mary's Working Women Hostel", "survey:date": "2022-06-29", "tourism": "hostel"}}, {"type": "node", "id": 9859759019, "lat": 9.920556, "lon": 78.1182542, "tags": {"name": "Madurai Gallery", "survey:date": "2022-07-01", "tourism": "gallery"}}, {"type": "node", "id": 9951936917, "lat": 9.9163173, "lon": 78.1494212, "tags": {"name": "Chakra Residency", "survey:date": "2022-08-14", "tourism": "hotel"}}, {"type": "node", "id": 10159209062, "lat": 9.8840617, "lon": 78.0799034}, {"type": "node", "id": 10159209063, "lat": 9.8840627, "lon": 78.0799999}, {"type": "node", "id": 10159209064, "lat": 9.8837919, "lon": 78.0793689}, {"type": "node", "id": 10159209065, "lat": 9.8837901, "lon": 78.0794054}, {"type": "node", "id": 10159209066, "lat": 9.8844697, "lon": 78.0799313}, {"type": "node", "id": 10159209067, "lat": 9.8844687, "lon": 78.0800156}, {"type": "node", "id": 10159209068, "lat": 9.8848818, "lon": 78.0800428}, {"type": "node", "id": 10159209069, "lat": 9.8848833, "lon": 78.0799566}, {"type": "node", "id": 10159209070, "lat": 9.8852878, "lon": 78.0799877}, {"type": "node", "id": 10159209071, "lat": 9.8852626, "lon": 78.0799888}, {"type": "node", "id": 10177615817, "lat": 9.9176826, "lon": 78.1238565, "tags": {"addr:postcode": "625009", "addr:street": "Kamarajar Salai, Mahal Area, Madurai Main, Kamarajar Salai, Tamil Nadu 625009", "name": "Adyar Ananda Bhavan A2B Veg Restaurant - Vilakuthoon Madurai", "opening_hours": "Mo-Su 09:00-10:00", "phone": "073388 09966", "survey:date": "2023-12-02", "tourism": "hotel", "website": "https://aabsweets.com"}}, {"type": "node", "id": 10568971295, "lat": 9.8755593, "lon": 78.1124451, "tags": {"name": "Kfour apartments and Hotels", "tourism": "hotel"}}, {"type": "node", "id": 10686112405, "lat": 9.9212238, "lon": 78.1170058, "tags": {"name": "HRK", "tourism": "hotel"}}, {"type": "node", "id": 10686117505, "lat": 9.9205207, "lon": 78.1161995, "tags": {"name": "HRK", "tourism": "hotel"}}, {"type": "node", "id": 10712098507, "lat": 9.9198038, "lon": 78.1162455, "tags": {"name": "Hotel Temple View", "name:en": "Hotel Temple View", "name:ta": "\u0bb9\u0bcb\u0b9f\u0bcd\u0b9f\u0bb2\u0bcd \u0b9f\u0bc6\u0bae\u0bcd\u0baa\u0bbf\u0bb3\u0bcd \u0bb5\u0bbf\u0baf\u0bc2", "tourism": "hotel"}}, {"type": "node", "id": 10727636688, "lat": 9.9251534, "lon": 78.1388771, "tags": {"artwork_type": "statue", "name": "Thiruvalluvar", "name:en": "Thiruvalluvar", "name:ta": "\u0ba4\u0bbf\u0bb0\u0bc1\u0bb5\u0bb3\u0bcd\u0bb3\u0bc1\u0bb5\u0bb0\u0bcd", "tourism": "artwork", "wikidata": "Q2353373", "wikimedia_commons": "Category:Thiruvalluvar", "wikipedia": "ta:\u0ba4\u0bbf\u0bb0\u0bc1\u0bb5\u0bb3\u0bcd\u0bb3\u0bc1\u0bb5\u0bb0\u0bcd"}}, {"type": "node", "id": 10851398846, "lat": 9.915467, "lon": 78.1245865}, {"type": "node", "id": 10851398847, "lat": 9.9148958, "lon": 78.1249662}, {"type": "node", "id": 11107521907, "lat": 9.9176577, "lon": 78.1125881, "tags": {"addr:street": "Town Hall Road", "tourism": "hotel"}}, {"type": "node", "id": 11162254005, "lat": 9.9219174, "lon": 78.0928128, "tags": {"addr:housenumber": "202", "addr:postcode": "625016", "addr:street": "Bypass Road, Madurai", "name": "Vajra Apartment", "name:en": "Vajra Apartment", "tourism": "apartment"}}, {"type": "node", "id": 11609521154, "lat": 9.9320717, "lon": 78.1048883, "tags": {"name": "Roja Apartment", "survey:date": "2024-01-27", "tourism": "apartment"}}, {"type": "node", "id": 11710833751, "lat": 9.936842, "lon": 78.1462597, "tags": {"name": "Avenue 11", "tourism": "hotel"}}, {"type": "node", "id": 11744862869, "lat": 9.9368418, "lon": 78.1463357, "tags": {"addr:housenumber": "51", "addr:postcode": "625020", "addr:street": "East third st", "email": "avenue11mdu@gmail.com", "name:en": "Avenue 11", "tourism": "hotel"}}, {"type": "way", "id": 31542637, "nodes": [352966512, 352966604, 352966696, 352966751, 352966512], "tags": {"name": "Arathi hotel", "stars": "2", "tourism": "hotel"}}, {"type": "way", "id": 49175978, "nodes": [7488337185, 623818411, 3433471513, 623818413, 623818414, 623818415, 623818416, 10851398846, 623818418, 10851398847, 7488337185], "tags": {"castle_type": "palace", "historic": "castle", "name": "Tirumalai Nayak Palace", "name:ml": "\u0d24\u0d3f\u0d30\u0d41\u0d2e\u0d32\u0d28\u0d3e\u0d2f\u0d4d\u0d15\u0d4d\u0d15\u0d7b \u0d15\u0d4a\u0d1f\u0d4d\u0d1f\u0d3e\u0d30\u0d02", "name:ta": "\u0ba4\u0bbf\u0bb0\u0bc1\u0bae\u0bb2\u0bc8 \u0ba8\u0bbe\u0baf\u0b95\u0bcd\u0b95\u0bb0\u0bcd \u0b85\u0bb0\u0ba3\u0bcd\u0bae\u0ba9\u0bc8", "name:zh": "\u8482\u9c81\u739b\u83b1\u00b7\u7eb3\u4e9a\u514b\u5bab", "tourism": "attraction", "wikidata": "Q3536592", "wikimedia_commons": "Category:Thirumalai Nayakkar Mahal", "wikipedia": "en:Thirumalai Nayakkar Mahal"}}, {"type": "way", "id": 50919606, "nodes": [649282275, 649282269, 649282278, 649282273, 7346323880, 7346323879, 649282275], "tags": {"name": "Hotel Germanus", "tourism": "hotel"}}, {"type": "way", "id": 54781719, "nodes": [689820153, 689820150, 689820151, 689820152, 689820153], "tags": {"building": "yes", "name": "Lakeview Hotel", "tourism": "hotel"}}, {"type": "way", "id": 202200427, "nodes": [2121828172, 2121828167, 2121828171, 2121828173, 2121828172], "tags": {"addr:city": "Madurai", "addr:country": "IN", "addr:housenumber": "1", "addr:postcode": "625001", "addr:street": "Peumal Tank West Street", "building": "yes", "internet_access": "wlan", "internet_access:fee": "no", "name": "Padmam", "tourism": "hotel"}}, {"type": "way", "id": 475217614, "nodes": [4689966238, 4689966239, 7493056960, 7493056959, 4689966238], "tags": {"building": "yes", "name": "Hotel Vijay", "tourism": "hotel"}}, {"type": "way", "id": 628057007, "nodes": [5929157196, 5929157197, 5929157198, 7080040575, 5929157199, 10159209070, 10159209071, 5929157200, 5929157201, 5929157202, 7572270263, 5929157203, 5929157196], "tags": {"addr:city": "Madurai", "addr:postcode": "625015", "building": "yes", "internet_access": "yes", "name": "A Block", "operator": "Thiagarajar college of Engineering, Madurai", "smoking": "no", "tourism": "hostel"}}, {"type": "way", "id": 740895715, "nodes": [6936438375, 6936438374, 6936438373, 6936438372, 6936438371, 6936438370, 6936438369, 6936438368, 6936438367, 6936438366, 6936438365, 6936438364, 6936438363, 6936438362, 6936438361, 6936438360, 6936438359, 6936438358, 6936438357, 6936438356, 6936438375], "tags": {"name": "Athisayam", "phone": "+91 97869 66881", "tourism": "theme_park", "website": "https://athisayampark.com/", "wikidata": "Q4813688", "wikimedia_commons": "Category:Athisayam", "wikipedia": "en:Athisayam"}}, {"type": "way", "id": 809926337, "nodes": [7572270264, 7572270265, 7572270266, 7572270267, 10159209068, 10159209069, 7572270268, 7572270269, 7572270270, 7572270271, 7572270272, 7572270273, 7572270264], "tags": {"addr:city": "Madurai", "addr:postcode": "625015", "building": "yes", "internet_access": "yes", "name": "B block", "operator": "Thiagarajar college of Engineering, Madurai", "smoking": "no", "tourism": "hostel"}}, {"type": "way", "id": 809926338, "nodes": [7572270274, 7572270275, 7572270276, 7572270277, 10159209067, 10159209066, 7572270278, 7572270279, 7572270280, 7572270281, 7572270282, 7572270283, 7572270274], "tags": {"addr:city": "Madurai", "addr:postcode": "625015", "building": "yes", "internet_access": "yes", "name": "C Block", "operator": "Thiagarajar college of Engineering, Madurai", "smoking": "no", "tourism": "hostel"}}, {"type": "way", "id": 809926339, "nodes": [7572270284, 7572301985, 7572301986, 7572301987, 10159209063, 10159209062, 7572301988, 7572301989, 7572301990, 7572301991, 7572301992, 7572301993, 7572270284], "tags": {"addr:city": "Madurai", "addr:postcode": "625015", "building": "yes", "internet_access": "yes", "name": "D block", "operator": "Thiagarajar college of Engineering, Madurai", "smoking": "no", "tourism": "hostel"}}, {"type": "way", "id": 809926340, "nodes": [7572301994, 7572301995, 7572301996, 7572301997, 7572301998, 7572301999, 7572302000, 7572302003, 7572302001, 7572302002, 7572301994], "tags": {"addr:city": "Madurai", "addr:postcode": "625015", "building": "yes", "internet_access": "yes", "operator": "Thiagarajar college of Engineering, Madurai", "smoking": "no", "tourism": "hostel"}}, {"type": "way", "id": 809926341, "nodes": [7572302004, 7572302005, 7572302006, 7572302007, 7572302008, 7572302009, 7572302010, 7572302011, 7572302012, 7572302013, 7572302004], "tags": {"addr:city": "Madurai", "addr:postcode": "625015", "building": "yes", "internet_access": "yes", "operator": "Thiagarajar college of Engineering, Madurai", "smoking": "no", "tourism": "hostel"}}, {"type": "way", "id": 809926342, "nodes": [7572302014, 7572302015, 7572302016, 7572302017, 7572302014], "tags": {"addr:city": "Madurai", "addr:postcode": "625015", "building": "yes", "internet_access": "yes", "operator": "Thiagarajar college of Engineering, Madurai", "smoking": "no", "tourism": "hostel"}}, {"type": "way", "id": 809926343, "nodes": [7572302018, 7572302019, 7572302020, 10159209064, 10159209065, 7572302021, 7572302018], "tags": {"addr:city": "Madurai", "addr:postcode": "625015", "building": "yes", "internet_access": "yes", "name": "E block", "operator": "Thiagarajar college of Engineering, Madurai", "smoking": "no", "tourism": "hostel"}}, {"type": "way", "id": 809926346, "nodes": [7572302030, 7572302031, 7572302032, 7572302033, 7572302030], "tags": {"addr:city": "Madurai", "addr:postcode": "625015", "building": "yes", "internet_access": "yes", "operator": "Thiagarajar college of Engineering, Madurai", "smoking": "no", "tourism": "hostel"}}, {"type": "way", "id": 809926361, "nodes": [7572302163, 7572302164, 7572302165, 7572302166, 7572302167, 7572302168, 7572302169, 7572302170, 7572302171, 7572302172, 7572302173, 7572302174, 7572302163], "tags": {"addr:city": "Madurai", "addr:postcode": "625015", "building": "yes", "guest_house": "student_accomodation", "internet_access": "yes", "name": "Thiagarajar College Ladies' Hostel", "operator": "Thiagarajar College of Engineering", "tourism": "hostel"}}, {"type": "way", "id": 809926362, "nodes": [7572302175, 7572302176, 7572302179, 7572302180, 7572302181, 7572302182, 7572302177, 7572302178, 7572302175], "tags": {"addr:city": "Madurai", "addr:postcode": "625015", "building": "yes", "guest_house": "student_accomodation", "internet_access": "yes", "name": "Thiagarajar College Ladies' Hostel", "operator": "Thiagarajar College of Engineering", "tourism": "hostel"}}, {"type": "way", "id": 809926363, "nodes": [7572302183, 7572302184, 7572302185, 7572302186, 7572302183], "tags": {"building": "yes", "tourism": "hostel"}}, {"type": "way", "id": 818850692, "nodes": [7647130253, 7647130254, 7647130255, 7647130256, 7647130253], "tags": {"building": "yes", "name": "\u0ba4\u0bbf \u0ba4\u0b99\u0bcd\u0b95\u0bae\u0bcd \u0b95\u0bbf\u0bb0\u0bbe\u0ba3\u0bcd\u0b9f\u0bcd", "name:en": "The Thangam Grand", "tourism": "hotel"}}, {"type": "way", "id": 999054981, "nodes": [9223762014, 9223762012, 9223781018, 9223762013, 9223781017, 9223762015, 9223762016, 9223762011, 9223762014], "tags": {"internet_access": "wlan", "internet_access:fee": "no", "name": "Weshtern Park", "operator": "9585556304", "smoking": "separated", "stars": "3", "tourism": "hotel"}}, {"type": "way", "id": 1027027522, "nodes": [9468662185, 9468662186, 9468662187, 9468662188, 9468662189, 9468662190, 9468662185], "tags": {"building": "yes", "name": "Gallery Kutir Asthi Peedam", "tourism": "museum"}}]}